ORBCOMM FM24            
1 25478U 98053D   25114.53535513  .00001755  00000+0  62196-3 0  9998
2 25478  45.0065 163.4577 0003822 285.6145  74.4281 14.37953032389729
ORBCOMM FM25            
1 25479U 98053E   25114.43629100  .00001783  00000+0  63138-3 0  9992
2 25479  45.0058 162.1912 0005495 309.1209  50.9150 14.37927575390002
ORBCOMM FM26            
1 25480U 98053F   25114.48251990  .00001526  00000+0  55728-3 0  9998
2 25480  45.0053 158.0481 0006424 332.1904  27.8600 14.37008940389923
ORBCOMM FM27            
1 25481U 98053G   25115.18924541  .00001836  00000+0  64857-3 0  9993
2 25481  45.0034 158.8438 0002698 272.4662  87.5877 14.37956284390080
ORBCOMM FM28            
1 25482U 98053H   25115.23421133  .00002018  00000+0  70522-3 0  9998
2 25482  45.0040  96.2094 0004781   3.2738 356.8141 14.38161406390902
ORBCOMM FM30            
1 25980U 99065A   25114.89573613  .00002008  00000+0  71600-3 0  9994
2 25980  45.0323 341.9415 0006589  97.6260 262.5337 14.37177699326786
ORBCOMM FM31            
1 25981U 99065B   25114.79735109  .00001797  00000+0  64633-3 0  9996
2 25981  45.0241 335.9105 0003923 120.4603 239.6633 14.37125614326324
ORBCOMM FM32            
1 25982U 99065C   25114.87776175  .00001858  00000+0  67968-3 0  9996
2 25982  45.0167 351.7478 0005888 116.7179 243.4271 14.36160446326938
